[
  {
    "OBJECT_NAME": "STARLINK-30488",
    "OBJECT_ID": "2023-147U",
    "EPOCH": "2026-07-23T06:43:16.004640",
    "MEAN_MOTION": 15.27570554,
    "ECCENTRICITY": 0.0001477,
    "INCLINATION": 43.0055,
    "RA_OF_ASC_NODE": 282.9658,
    "ARG_OF_PERICENTER": 255.5454,
    "MEAN_ANOMALY": 104.5234,
    "EPHEMERIS_TYPE": 0,
    "CLASSIFICATION_TYPE": "U",
    "NORAD_CAT_ID": 57931,
    "ELEMENT_SET_NO": 999,
    "REV_AT_EPOCH": 15732,
    "BSTAR": -0.000027819,
    "MEAN_MOTION_DOT": -0.00001027,
    "MEAN_MOTION_DDOT": 0
  }
]
