STARLINK-30488          
1 57931U 23147U   26204.28004636 -.00001027  00000+0 -27819-4 0  9997
2 57931  43.0055 282.9658 0001477 255.5454 104.5234 15.27570555157322
